[
    {
        "Altitude(m)": 604969.0890183286,
        "Argument of Periapsis(deg)": 0.0,
        "Eccentricity": 0.0,
        "Inclination(deg)": 60.0,
        "Latitude(deg)": -0.09256213407651867,
        "Longitude(deg)": 139.97752750595393,
        "Mean Anomaly(deg)": 0.0,
        "RAAN(deg)": 240.0,
        "Satellite Name": "Test1 1056",
        "Satellite Number": 1056,
        "Semi-Major Axis(m)": 6980739.136638005,
        "Time(s)": 0
    },
    {
        "Altitude(m)": 604900.0292016974,
        "Argument of Periapsis(deg)": 0.00010418945913296404,
        "Eccentricity": 0.0,
        "Inclination(deg)": 60.0,
        "Latitude(deg)": 0.44786346988007636,
        "Longitude(deg)": 140.24565111646987,
        "Mean Anomaly(deg)": 0.620106145461853,
        "RAAN(deg)": 239.99957995086024,
        "Satellite Name": "Test1 1056",
        "Satellite Number": 1056,
        "Semi-Major Axis(m)": 6980739.136638005,
        "Time(s)": 10
    }
]